{
  "features": [
    {
      "geometry": {
        "coordinates": [
          90.4023,
          23.8957
        ],
        "type": "Point"
      },
      "id": "cluster-002",
      "properties": {
        "confidence": 0.68,
        "event_start": "2026-08-09T00:00:00",
        "event_type": "road_crash",
        "granularity": "city",
        "incident_id": "cluster-002",
        "location_name": "Tongi, Gazipur",
        "sentiment_count": 2,
        "source_count": 2,
        "status": "reported",
        "title": "Road crash and aftermath in Tongi, Gazipur",
        "uncertainty_radius_km": 5.0
      },
      "type": "Feature"
    },
    {
      "geometry": {
        "coordinates": [
          90.4023,
          23.8957
        ],
        "type": "Point"
      },
      "id": "inc_003",
      "properties": {
        "confidence": 0.68,
        "event_start": "2026-08-09T11:00:00",
        "event_type": "road_crash",
        "granularity": "city",
        "incident_id": "inc_003",
        "location_name": "Tongi, Gazipur",
        "sentiment_count": 5,
        "source_count": 1,
        "status": "resolved",
        "title": "Students blockade Dhaka-Mymensingh Highway in Tongi after road death of student Yasin",
        "uncertainty_radius_km": 5.0
      },
      "type": "Feature"
    },
    {
      "geometry": {
        "coordinates": [
          90.4867,
          23.7055
        ],
        "type": "Point"
      },
      "id": "inc_konapara_dncc_crash_20251212",
      "properties": {
        "confidence": 0.68,
        "event_start": "2025-12-12T00:00:00",
        "event_type": "road_crash",
        "granularity": "area",
        "incident_id": "inc_konapara_dncc_crash_20251212",
        "location_name": "Konapara, Demra, Dhaka, Bangladesh",
        "sentiment_count": 0,
        "source_count": 3,
        "status": "reported",
        "title": "Two university students killed in Demra after DNCC garbage truck hits motorcycle",
        "uncertainty_radius_km": null
      },
      "type": "Feature"
    },
    {
      "geometry": {
        "coordinates": [
          91.7417,
          24.7063
        ],
        "type": "Point"
      },
      "id": "inc_cluster007",
      "properties": {
        "confidence": 0.68,
        "event_start": "2026-08-07T00:00:00",
        "event_type": "road_crash",
        "granularity": "area",
        "incident_id": "inc_cluster007",
        "location_name": "Kashikapan, Osmaninagar, Sylhet, Bangladesh",
        "sentiment_count": 1,
        "source_count": 2,
        "status": "reported",
        "title": "Two passenger buses collide on Dhaka–Sylhet highway in Kashikapan, Osmaninagar, Sylhet",
        "uncertainty_radius_km": 5.0
      },
      "type": "Feature"
    },
    {
      "geometry": {
        "coordinates": [
          89.417,
          24.675
        ],
        "type": "Point"
      },
      "id": "inc_008",
      "properties": {
        "confidence": 0.5,
        "event_start": "2026-08-07T00:00:00+00:00",
        "event_type": "road_crash",
        "granularity": "city",
        "incident_id": "inc_008",
        "location_name": "Bogura, Bangladesh",
        "sentiment_count": 1,
        "source_count": 2,
        "status": "reported",
        "title": "Fatal bus crash in Bogura kills seven, prompts official inquiry",
        "uncertainty_radius_km": 20.0
      },
      "type": "Feature"
    }
  ],
  "type": "FeatureCollection"
}
